NORAD_CAT_ID,OBJECT_NAME,OBJECT_TYPE,EPOCH,MEAN_MOTION,ECCENTRICITY,INCLINATION,RA_OF_ASC_NODE,ARG_OF_PERICENTER,MEAN_ANOMALY,BSTAR,MEAN_MOTION_DOT,MEAN_MOTION_DDOT,TLE_LINE0,TLE_LINE1,TLE_LINE2,SEMIMAJOR_AXIS,PERIOD,APOGEE,PERIGEE,DECAYED
54758.0,STARLINK-5464,PAYLOAD,2023-04-06 21:08:03,15.08843359,0.0001425,53.2155,152.8908,87.9833,272.1322,0.00044963,6.876e-05,0.0,0 STARLINK-5464,1 54758U 22175A   23096.88059975  .00006876  00000-0  44963-3 0  9993,2 54758  53.2155 152.8908 0001425  87.9833 272.1322 15.08843359 18784,6917.87,95.437,540.721,538.749,0.0
54758.0,STARLINK-5464,PAYLOAD,2023-04-07 09:51:08,15.08848229,0.0001466,53.2155,150.512,87.1031,273.0129,0.00033579,5.061e-05,0.0,0 STARLINK-5464,1 54758U 22175A   23097.41051787  .00005061  00000-0  33579-3 0  9992,2 54758  53.2155 150.5120 0001466  87.1031 273.0129 15.08848229 15426,6917.855,95.437,540.734,538.706,0.0
54758.0,STARLINK-5464,PAYLOAD,2023-04-07 20:58:50,15.08838394,0.0001258,53.2163,148.4305,81.1031,279.0103,4.9964e-05,5.07e-06,0.0,0 STARLINK-5464,1 54758U 22175A   23097.87419789  .00000507  00000-0  49964-4 0  9998,2 54758  53.2163 148.4305 0001258  81.1031 279.0103 15.08838394 15496,6917.885,95.438,540.621,538.88,0.0
54758.0,STARLINK-5464,PAYLOAD,2023-04-08 09:41:56,15.0881005,0.0001318,53.2158,146.0498,94.8043,265.3099,-0.00055512,-9.104e-05,0.0,0 STARLINK-5464,1 54758U 22175A   23098.40413088 -.00009104  00000-0 -55512-3 0  9993,2 54758  53.2158 146.0498 0001318  94.8043 265.3099 15.08810050 15578,6917.972,95.439,540.749,538.925,0.0
54758.0,STARLINK-5464,PAYLOAD,2023-04-09 03:11:11,15.08834095,0.0001324,53.2157,142.7799,70.5849,289.5286,0.00030437,4.559e-05,0.0,0 STARLINK-5464,1 54758U 22175A   23099.13277459  .00004559  00000-0  30437-3 0  9990,2 54758  53.2157 142.7799 0001324  70.5849 289.5286 15.08834095 15689,6917.898,95.438,540.679,538.848,0.0
54758.0,STARLINK-5464,PAYLOAD,2023-04-09 09:32:44,15.08842574,0.0001457,53.2151,141.5926,63.1232,296.9909,0.00084234,0.00013144,0.0,0 STARLINK-5464,1 54758U 22175A   23099.39773642  .00013144  00000-0  84234-3 0  9997,2 54758  53.2151 141.5926 0001457  63.1232 296.9909 15.08842574 19165,6917.873,95.437,540.745,538.73,0.0
54758.0,STARLINK-5464,PAYLOAD,2023-04-09 14:18:53,15.08852727,0.0001584,53.2149,140.6998,50.0465,310.0666,0.0011128,0.00017473,0.0,0 STARLINK-5464,1 54758U 22175A   23099.59645533  .00017473  00000-0  11128-2 0  9996,2 54758  53.2149 140.6998 0001584  50.0465 310.0666 15.08852727 15755,6917.841,95.437,540.802,538.611,0.0
54758.0,STARLINK-5464,PAYLOAD,2023-04-10 12:34:16,15.0887765,0.0001433,53.2154,136.5346,73.428,286.6869,0.00077782,0.00012125,0.0,0 STARLINK-5464,1 54758U 22175A   23100.52379724  .00012125  00000-0  77782-3 0  9996,2 54758  53.2154 136.5346 0001433  73.4280 286.6869 15.08877650 19332,6917.765,95.435,540.622,538.639,0.0
54758.0,STARLINK-5464,PAYLOAD,2023-04-10 18:55:47,15.08860644,0.0001886,53.2163,135.352,229.7686,130.3141,-0.00050393,-8.304e-05,0.0,0 STARLINK-5464,1 54758U 22175A   23100.78874767 -.00008304  00000-0 -50393-3 0  9996,2 54758  53.2163 135.3520 0001886 229.7686 130.3141 15.08860644 19378,6917.817,95.436,540.987,538.378,0.0
54758.0,STARLINK-5464,PAYLOAD,2023-04-11 02:52:44,15.0885342,0.0001317,53.2153,133.8591,75.3164,284.7975,-3.432e-05,-8.34e-06,0.0,0 STARLINK-5464,1 54758U 22175A   23101.11995522 -.00000834  00000-0 -34320-4 0  9990,2 54758  53.2153 133.8591 0001317  75.3164 284.7975 15.08853420 15989,6917.839,95.437,540.615,538.793,0.0
54758.0,STARLINK-5464,PAYLOAD,2023-04-11 12:25:02,15.08853754,0.0001338,53.2157,132.0748,76.6969,283.4172,0.0002891,4.318e-05,0.0,0 STARLINK-5464,1 54758U 22175A   23101.51739317  .00004318  00000-0  28910-3 0  9998,2 54758  53.2157 132.0748 0001338  76.6969 283.4172 15.08853754 19482,6917.838,95.437,540.629,538.778,0.0
54758.0,STARLINK-5464,PAYLOAD,2023-04-12 01:08:07,15.08843587,0.0001326,53.2155,129.6967,77.6988,282.4152,0.00022656,3.32e-05,0.0,0 STARLINK-5464,1 54758U 22175A   23102.04731459  .00003320  00000-0  22656-3 0  9999,2 54758  53.2155 129.6967 0001326  77.6988 282.4152 15.08843587 16122,6917.869,95.437,540.652,538.817,0.0
54758.0,STARLINK-5464,PAYLOAD,2023-04-12 09:05:03,15.08845391,0.0001467,53.2163,128.2106,72.9327,287.1826,3.3697e-05,2.48e-06,0.0,0 STARLINK-5464,1 54758U 22175A   23102.37851388  .00000248  00000-0  33697-4 0  9993,2 54758  53.2163 128.2106 0001467  72.9327 287.1826 15.08845391 19614,6917.864,95.437,540.744,538.714,0.0
54758.0,STARLINK-5464,PAYLOAD,2023-04-13 10:31:14,15.08835326,0.0001496,53.2167,123.4525,85.8063,274.31,1.364e-05,-7.1e-07,0.0,0 STARLINK-5464,1 54758U 22175A   23103.43836049 -.00000071  00000-0  13640-4 0  9999,2 54758  53.2167 123.4525 0001496  85.8063 274.3100 15.08835326 19779,6917.895,95.438,540.795,538.725,0.0
54758.0,STARLINK-5464,PAYLOAD,2023-04-14 08:46:38,15.08843541,0.0001477,53.2167,119.2891,85.7465,274.3696,0.00015148,2.124e-05,0.0,0 STARLINK-5464,1 54758U 22175A   23104.36571985  .00002124  00000-0  15148-3 0  9991,2 54758  53.2167 119.2891 0001477  85.7465 274.3696 15.08843541 19916,6917.87,95.437,540.756,538.713,0.0
54758.0,STARLINK-5464,PAYLOAD,2023-04-15 07:02:02,15.08841024,0.0001474,53.217,115.1265,85.4824,274.6336,0.00016839,2.393e-05,0.0,0 STARLINK-5464,1 54758U 22175A   23105.29308333  .00002393  00000-0  16839-3 0  9995,2 54758  53.2170 115.1265 0001474  85.4824 274.6336 15.08841024 20058,6917.877,95.437,540.762,538.723,0.0
54758.0,STARLINK-5464,PAYLOAD,2023-04-15 18:09:44,15.08839429,0.0001454,53.2163,113.0455,83.0401,277.0757,0.00010056,1.313e-05,0.0,0 STARLINK-5464,1 54758U 22175A   23105.75676491  .00001313  00000-0  10056-3 0  9995,2 54758  53.2163 113.0455 0001454  83.0401 277.0757 15.08839429 20129,6917.882,95.438,540.753,538.741,0.0
54758.0,STARLINK-5464,PAYLOAD,2023-04-16 05:17:26,15.08838188,0.0001465,53.2172,110.9636,84.7607,275.3552,2.4374e-05,1e-06,0.0,0 STARLINK-5464,1 54758U 22175A   23106.22044714  .00000100  00000-0  24374-4 0  9997,2 54758  53.2172 110.9636 0001465  84.7607 275.3552 15.08838188 16753,6917.886,95.438,540.764,538.737,0.0
54758.0,STARLINK-5464,PAYLOAD,2023-04-16 06:52:49,15.08838696,0.0001385,53.2168,110.6653,91.71,268.4051,2.9844e-05,1.87e-06,0.0,0 STARLINK-5464,1 54758U 22175A   23106.28668588  .00000187  00000-0  29844-4 0  9996,2 54758  53.2168 110.6653 0001385  91.7100 268.4051 15.08838696 20207,6917.884,95.438,540.708,538.791,0.0
54758.0,STARLINK-5464,PAYLOAD,2023-04-17 06:43:36,15.08842014,0.0001326,53.2171,106.2047,92.3318,267.7826,8.2393e-05,1.024e-05,0.0,0 STARLINK-5464,1 54758U 22175A   23107.28028352  .00001024  00000-0  82393-4 0  9995,2 54758  53.2171 106.2047 0001326  92.3318 267.7826 15.08842014 16916,6917.874,95.437,540.657,538.822,0.0
54758.0,STARLINK-5464,PAYLOAD,2023-04-18 06:34:23,15.08837805,0.0001186,53.2168,101.745,88.3984,271.7144,0.00011915,1.609e-05,0.0,0 STARLINK-5464,1 54758U 22175A   23108.27388812  .00001609  00000-0  11915-3 0  9995,2 54758  53.2168 101.7450 0001186  88.3984 271.7144 15.08837805 20508,6917.887,95.438,540.573,538.932,0.0
54758.0,STARLINK-5464,PAYLOAD,2023-04-18 16:06:42,15.08837066,0.0001165,53.2171,99.9613,91.2483,268.8643,6.403e-05,7.31e-06,0.0,0 STARLINK-5464,1 54758U 22175A   23108.67132966  .00000731  00000-0  64030-4 0  9998,2 54758  53.2171  99.9613 0001165  91.2483 268.8643 15.08837066 17129,6917.889,95.438,540.56,538.948,0.0
54758.0,STARLINK-5464,PAYLOAD,2023-04-19 08:00:34,15.0883446,0.0001209,53.2175,96.9873,92.3519,267.7611,2.3088e-06,-2.51e-06,0.0,0 STARLINK-5464,1 54758U 22175A   23109.33373603 -.00000251  00000-0  23088-5 0  9994,2 54758  53.2175  96.9873 0001209  92.3519 267.7611 15.08834460 17228,6917.897,95.438,540.599,538.926,0.0
54758.0,STARLINK-5464,PAYLOAD,2023-04-19 15:57:30,15.08835123,0.0001229,53.2178,95.5006,92.8721,267.2412,2.9635e-05,1.84e-06,0.0,0 STARLINK-5464,1 54758U 22175A   23109.66493586  .00000184  00000-0  29635-4 0  9990,2 54758  53.2178  95.5006 0001229  92.8721 267.2412 15.08835123 20715,6917.895,95.438,540.611,538.91,0.0
54758.0,STARLINK-5464,PAYLOAD,2023-04-20 07:51:21,15.08846132,0.0001192,53.2175,92.5264,94.5943,265.5185,8.0695e-05,9.97e-06,0.0,0 STARLINK-5464,1 54758U 22175A   23110.32732824  .00000997  00000-0  80695-4 0  9991,2 54758  53.2175  92.5264 0001192  94.5943 265.5185 15.08846132 20810,6917.862,95.437,540.551,538.902,0.0
54758.0,STARLINK-5464,PAYLOAD,2023-04-21 06:06:46,15.08832276,0.0001132,53.2169,88.3624,88.8721,271.2401,9.2017e-05,1.177e-05,0.0,0 STARLINK-5464,1 54758U 22175A   23111.25469975  .00001177  00000-0  92017-4 0  9990,2 54758  53.2169  88.3624 0001132  88.8721 271.2401 15.08832276 17512,6917.904,95.438,540.552,538.986,0.0
54758.0,STARLINK-5464,PAYLOAD,2023-04-21 15:39:04,15.08838644,0.0001125,53.2172,86.5784,90.5796,269.5325,6.9846e-05,8.24e-06,0.0,0 STARLINK-5464,1 54758U 22175A   23111.65213688  .00000824  00000-0  69846-4 0  9994,2 54758  53.2172  86.5784 0001125  90.5796 269.5325 15.08838644 21017,6917.885,95.438,540.528,538.971,0.0
54758.0,STARLINK-5464,PAYLOAD,2023-04-22 04:22:09,15.08847885,0.0001086,53.2168,84.2001,89.9642,270.1474,0.00010204,1.337e-05,0.0,0 STARLINK-5464,1 54758U 22175A   23112.18204958  .00001337  00000-0  10204-3 0  9996,2 54758  53.2168  84.2001 0001086  89.9642 270.1474 15.08847885 21095,6917.856,95.437,540.473,538.97,0.0
54758.0,STARLINK-5464,PAYLOAD,2023-04-22 15:29:50,15.08855886,0.0001231,53.2173,82.1181,91.011,269.1023,0.00018755,2.699e-05,0.0,0 STARLINK-5464,1 54758U 22175A   23112.64571792  .00002699  00000-0  18755-3 0  9991,2 54758  53.2173  82.1181 0001231  91.0110 269.1023 15.08855886 17726,6917.832,95.437,540.548,538.845,0.0
54758.0,STARLINK-5464,PAYLOAD,2023-04-23 07:23:43,15.08830417,0.0001419,53.2163,79.1457,89.1945,270.921,-2.9496e-05,-7.57e-06,0.0,0 STARLINK-5464,1 54758U 22175A   23113.30814274 -.00000757  00000-0 -29496-4 0  9990,2 54758  53.2163  79.1457 0001419  89.1945 270.9210 15.08830417 17821,6917.91,95.438,540.756,538.793,0.0
